[
    {
        "Altitude(m)": 607895.7808775968,
        "Argument of Periapsis(deg)": 0.0,
        "Eccentricity": 0.0,
        "Inclination(deg)": 60.0,
        "Latitude(deg)": 40.99824070706177,
        "Longitude(deg)": -89.9113403240513,
        "Mean Anomaly(deg)": 130.9091,
        "RAAN(deg)": 220.00000000000003,
        "Satellite Name": "Test1 976",
        "Satellite Number": 976,
        "Semi-Major Axis(m)": 6980739.136638005,
        "Time(s)": 0
    },
    {
        "Altitude(m)": 607795.0937599293,
        "Argument of Periapsis(deg)": 0.00010418945913296404,
        "Eccentricity": 0.0,
        "Inclination(deg)": 60.0,
        "Latitude(deg)": 40.53056481833578,
        "Longitude(deg)": -89.41474744790798,
        "Mean Anomaly(deg)": 131.52920614546187,
        "RAAN(deg)": 219.99957995086027,
        "Satellite Name": "Test1 976",
        "Satellite Number": 976,
        "Semi-Major Axis(m)": 6980739.136638005,
        "Time(s)": 10
    },
    {
        "Altitude(m)": 607694.5822061535,
        "Argument of Periapsis(deg)": 0.0002083789182659281,
        "Eccentricity": 0.0,
        "Inclination(deg)": 60.0,
        "Latitude(deg)": 40.060378987936296,
        "Longitude(deg)": -88.92559540450969,
        "Mean Anomaly(deg)": 132.1493122909237,
        "RAAN(deg)": 219.9991599017205,
        "Satellite Name": "Test1 976",
        "Satellite Number": 976,
        "Semi-Major Axis(m)": 6980739.136638005,
        "Time(s)": 20
    },
    {
        "Altitude(m)": 607594.3099149913,
        "Argument of Periapsis(deg)": 0.00031256837739889213,
        "Eccentricity": 0.0,
        "Inclination(deg)": 60.0,
        "Latitude(deg)": 39.58775678923115,
        "Longitude(deg)": -88.44369858909373,
        "Mean Anomaly(deg)": 132.7694184363855,
        "RAAN(deg)": 219.99873985258077,
        "Satellite Name": "Test1 976",
        "Satellite Number": 976,
        "Semi-Major Axis(m)": 6980739.136638005,
        "Time(s)": 30
    },
    {
        "Altitude(m)": 607494.3406855001,
        "Argument of Periapsis(deg)": 0.0004167578365318562,
        "Eccentricity": 0.0,
        "Inclination(deg)": 60.0,
        "Latitude(deg)": 39.11276955544388,
        "Longitude(deg)": -87.96887443679493,
        "Mean Anomaly(deg)": 133.38952458184733,
        "RAAN(deg)": 219.99831980344106,
        "Satellite Name": "Test1 976",
        "Satellite Number": 976,
        "Semi-Major Axis(m)": 6980739.136638005,
        "Time(s)": 40
    },
    {
        "Altitude(m)": 607394.738385197,
        "Argument of Periapsis(deg)": 0.0005209472956648203,
        "Eccentricity": 0.0,
        "Inclination(deg)": 60.0,
        "Latitude(deg)": 38.635486453013655,
        "Longitude(deg)": -87.50094444309025,
        "Mean Anomaly(deg)": 134.00963072730917,
        "RAAN(deg)": 219.9978997543013,
        "Satellite Name": "Test1 976",
        "Satellite Number": 976,
        "Semi-Major Axis(m)": 6980739.136638005,
        "Time(s)": 50
    },
    {
        "Altitude(m)": 607295.5669180445,
        "Argument of Periapsis(deg)": 0.0006251367547977843,
        "Eccentricity": 0.0,
        "Inclination(deg)": 60.0,
        "Latitude(deg)": 38.155974553415284,
        "Longitude(deg)": -87.03973366055409,
        "Mean Anomaly(deg)": 134.629736872771,
        "RAAN(deg)": 219.99747970516154,
        "Satellite Name": "Test1 976",
        "Satellite Number": 976,
        "Semi-Major Axis(m)": 6980739.136638005,
        "Time(s)": 60
    },
    {
        "Altitude(m)": 607196.8901923852,
        "Argument of Periapsis(deg)": 0.0007293262139307483,
        "Eccentricity": 0.0,
        "Inclination(deg)": 60.0,
        "Latitude(deg)": 37.67429890337153,
        "Longitude(deg)": -86.58507018592974,
        "Mean Anomaly(deg)": 135.24984301823278,
        "RAAN(deg)": 219.9970596560218,
        "Satellite Name": "Test1 976",
        "Satellite Number": 976,
        "Semi-Major Axis(m)": 6980739.136638005,
        "Time(s)": 70
    },
    {
        "Altitude(m)": 607098.7720888405,
        "Argument of Periapsis(deg)": 0.0008335156730637124,
        "Eccentricity": 0.0,
        "Inclination(deg)": 60.0,
        "Latitude(deg)": 37.19052259340489,
        "Longitude(deg)": -86.13678615143282,
        "Mean Anomaly(deg)": 135.86994916369463,
        "RAAN(deg)": 219.9966396068821,
        "Satellite Name": "Test1 976",
        "Satellite Number": 976,
        "Semi-Major Axis(m)": 6980739.136638005,
        "Time(s)": 80
    },
    {
        "Altitude(m)": 607001.2764281249,
        "Argument of Periapsis(deg)": 0.0009377051321966765,
        "Eccentricity": 0.0,
        "Inclination(deg)": 60.0,
        "Latitude(deg)": 36.70470682468965,
        "Longitude(deg)": -85.69471719550697,
        "Mean Anomaly(deg)": 136.49005530915647,
        "RAAN(deg)": 219.9962195577423,
        "Satellite Name": "Test1 976",
        "Satellite Number": 976,
        "Semi-Major Axis(m)": 6980739.136638005,
        "Time(s)": 90
    },
    {
        "Altitude(m)": 606904.4669388845,
        "Argument of Periapsis(deg)": 0.0010418945913296407,
        "Eccentricity": 0.0,
        "Inclination(deg)": 60.0,
        "Latitude(deg)": 36.216910974175526,
        "Longitude(deg)": -85.25870192678404,
        "Mean Anomaly(deg)": 137.11016145461832,
        "RAAN(deg)": 219.9957995086026,
        "Satellite Name": "Test1 976",
        "Satellite Number": 976,
        "Semi-Major Axis(m)": 6980739.136638005,
        "Time(s)": 100
    },
    {
        "Altitude(m)": 606808.4072254892,
        "Argument of Periapsis(deg)": 0.0011460840504626045,
        "Eccentricity": 0.0,
        "Inclination(deg)": 60.0,
        "Latitude(deg)": 35.72719265796697,
        "Longitude(deg)": -84.82858289493099,
        "Mean Anomaly(deg)": 137.73026760008014,
        "RAAN(deg)": 219.99537945946284,
        "Satellite Name": "Test1 976",
        "Satellite Number": 976,
        "Semi-Major Axis(m)": 6980739.136638005,
        "Time(s)": 110
    },
    {
        "Altitude(m)": 606713.1607358531,
        "Argument of Periapsis(deg)": 0.0012502735095955685,
        "Eccentricity": 0.0,
        "Inclination(deg)": 60.0,
        "Latitude(deg)": 35.23560779294847,
        "Longitude(deg)": -84.40420604337928,
        "Mean Anomaly(deg)": 138.350373745542,
        "RAAN(deg)": 219.99495941032308,
        "Satellite Name": "Test1 976",
        "Satellite Number": 976,
        "Semi-Major Axis(m)": 6980739.136638005,
        "Time(s)": 120
    },
    {
        "Altitude(m)": 606618.7907292538,
        "Argument of Periapsis(deg)": 0.0013544629687285324,
        "Eccentricity": 0.0,
        "Inclination(deg)": 60.0,
        "Latitude(deg)": 34.74221065665739,
        "Longitude(deg)": -83.98542015748573,
        "Mean Anomaly(deg)": 138.97047989100378,
        "RAAN(deg)": 219.99453936118334,
        "Satellite Name": "Test1 976",
        "Satellite Number": 976,
        "Semi-Major Axis(m)": 6980739.136638005,
        "Time(s)": 130
    },
    {
        "Altitude(m)": 606525.360244228,
        "Argument of Periapsis(deg)": 0.0014586524278614966,
        "Eccentricity": 0.0,
        "Inclination(deg)": 60.0,
        "Latitude(deg)": 34.24705394540969,
        "Longitude(deg)": -83.57207782161039,
        "Mean Anomaly(deg)": 139.59058603646568,
        "RAAN(deg)": 219.99411931204364,
        "Satellite Name": "Test1 976",
        "Satellite Number": 976,
        "Semi-Major Axis(m)": 6980739.136638005,
        "Time(s)": 140
    },
    {
        "Altitude(m)": 606432.9320664677,
        "Argument of Periapsis(deg)": 0.0015628418869944607,
        "Eccentricity": 0.0,
        "Inclination(deg)": 60.0,
        "Latitude(deg)": 33.750188830693396,
        "Longitude(deg)": -83.16403485993092,
        "Mean Anomaly(deg)": -219.78930781807256,
        "RAAN(deg)": 219.99369926290387,
        "Satellite Name": "Test1 976",
        "Satellite Number": 976,
        "Semi-Major Axis(m)": 6980739.136638005,
        "Time(s)": 150
    },
    {
        "Altitude(m)": 606341.5686968412,
        "Argument of Periapsis(deg)": 0.0016670313461274247,
        "Eccentricity": 0.0,
        "Inclination(deg)": 60.0,
        "Latitude(deg)": 33.25166501384642,
        "Longitude(deg)": -82.76114977437221,
        "Mean Anomaly(deg)": -219.1692016726107,
        "RAAN(deg)": 219.9932792137641,
        "Satellite Name": "Test1 976",
        "Satellite Number": 976,
        "Semi-Major Axis(m)": 6980739.136638005,
        "Time(s)": 160
    },
    {
        "Altitude(m)": 606251.3323194588,
        "Argument of Periapsis(deg)": 0.0017712208052603888,
        "Eccentricity": 0.0,
        "Inclination(deg)": 60.0,
        "Latitude(deg)": 32.75153077904308,
        "Longitude(deg)": -82.36328469298572,
        "Mean Anomaly(deg)": -218.5490955271489,
        "RAAN(deg)": 219.99285916462438,
        "Satellite Name": "Test1 976",
        "Satellite Number": 976,
        "Semi-Major Axis(m)": 6980739.136638005,
        "Time(s)": 170
    },
    {
        "Altitude(m)": 606162.2847698584,
        "Argument of Periapsis(deg)": 0.001875410264393353,
        "Eccentricity": 0.0,
        "Inclination(deg)": 60.0,
        "Latitude(deg)": 32.24983304461478,
        "Longitude(deg)": -81.9703048034507,
        "Mean Anomaly(deg)": -217.9289893816871,
        "RAAN(deg)": 219.99243911548467,
        "Satellite Name": "Test1 976",
        "Satellite Number": 976,
        "Semi-Major Axis(m)": 6980739.136638005,
        "Time(s)": 180
    },
    {
        "Altitude(m)": 606074.4875032937,
        "Argument of Periapsis(deg)": 0.0019795997235263173,
        "Eccentricity": 0.0,
        "Inclination(deg)": 60.0,
        "Latitude(deg)": 31.746617412736406,
        "Longitude(deg)": -81.58207778494778,
        "Mean Anomaly(deg)": -217.3088832362252,
        "RAAN(deg)": 219.9920190663449,
        "Satellite Name": "Test1 976",
        "Satellite Number": 976,
        "Semi-Major Axis(m)": 6980739.136638005,
        "Time(s)": 190
    }
]